API VERSION: 1.2
API SOURCE: NASA/JPL Horizons API



*******************************************************************************
Ephemeris / API_USER Tue Dec 31 02:05:22 2024 Pasadena, USA      / Horizons
*******************************************************************************
Target body name: Mars Barycenter (4)             {source: DE441}
Center body name: Solar System Barycenter (0)     {source: DE441}
Center-site name: BODY CENTER
*******************************************************************************
Start time      : A.D. 2031-Oct-15 00:00:00.0000 TDB
Stop  time      : A.D. 2031-Nov-15 00:00:00.0000 TDB
Step-size       : 1440 minutes
*******************************************************************************
Center geodetic : 0.0, 0.0, 0.0                   {E-lon(deg),Lat(deg),Alt(km)}
Center cylindric: 0.0, 0.0, 0.0                   {E-lon(deg),Dxy(km),Dz(km)}
Center radii    : (undefined)
Output units    : KM-S
Calendar mode   : Mixed Julian/Gregorian
Output type     : GEOMETRIC cartesian states
Output format   : 2 (position and velocity)
Reference frame : Ecliptic of J2000.0
*******************************************************************************
            JDTDB,            Calendar Date (TDB),                      X,                      Y,                      Z,                     VX,                     VY,                     VZ,
**************************************************************************************************************************************************************************************************
$$SOE
2463154.500000000, A.D. 2031-Oct-15 00:00:00.0000,  1.482649318122131E+08, -1.448442099358957E+08, -6.668602371902138E+06,  1.783027991046660E+01,  1.941341801149401E+01, -3.015676856005900E-02,
2463155.500000000, A.D. 2031-Oct-16 00:00:00.0000,  1.497972291009190E+08, -1.431589110219622E+08, -6.670838721165128E+06,  1.763920702180058E+01,  1.959780154532265E+01, -2.160871200876091E-02,
2463156.500000000, A.D. 2031-Oct-17 00:00:00.0000,  1.513129253005061E+08, -1.414577671714394E+08, -6.672336052296929E+06,  1.744599925162801E+01,  1.978019402746306E+01, -1.305006398480657E-02,
2463157.500000000, A.D. 2031-Oct-18 00:00:00.0000,  1.528118369524348E+08, -1.397409516830417E+08, -6.673093501242779E+06,  1.725067972161984E+01,  1.996056606765693E+01, -4.482007165035107E-03,
2463158.500000000, A.D. 2031-Oct-19 00:00:00.0000,  1.542937826176119E+08, -1.380086403815114E+08, -6.673110306385309E+06,  1.705327205575981E+01,  2.013888858507724E+01,  4.094269948843987E-03,
2463159.500000000, A.D. 2031-Oct-20 00:00:00.0000,  1.557585829195817E+08, -1.362610115904238E+08, -6.672385809032969E+06,  1.685380037546227E+01,  2.031513281895417E+01,  1.267757337274311E-02,
2463160.500000000, A.D. 2031-Oct-21 00:00:00.0000,  1.572060605872830E+08, -1.344982461040786E+08, -6.670919453878812E+06,  1.665228929441963E+01,  2.048927033911387E+01,  2.126670398741926E-02,
2463161.500000000, A.D. 2031-Oct-22 00:00:00.0000,  1.586360404973498E+08, -1.327205271584844E+08, -6.668710789428994E+06,  1.644876391318118E+01,  2.066127305642215E+01,  2.986045789027170E-02,
2463162.500000000, A.D. 2031-Oct-23 00:00:00.0000,  1.600483497159323E+08, -1.309280404014454E+08, -6.665759468400665E+06,  1.624324981346550E+01,  2.083111323312492E+01,  3.845762675153530E-02,
2463163.500000000, A.D. 2031-Oct-24 00:00:00.0000,  1.614428175400140E+08, -1.291209738617597E+08, -6.662065248088986E+06,  1.603577305220855E+01,  2.099876349307766E+01,  4.705699817463138E-02,
2463164.500000000, A.D. 2031-Oct-25 00:00:00.0000,  1.628192755382046E+08, -1.272995179175379E+08, -6.657627990702763E+06,  1.582636015534991E+01,  2.116419683185594E+01,  5.565735606046918E-02,
2463165.500000000, A.D. 2031-Oct-26 00:00:00.0000,  1.641775575909835E+08, -1.254638652636551E+08, -6.652447663668454E+06,  1.561503811136007E+01,  2.132738662673900E+01,  6.425748097550699E-02,
2463166.500000000, A.D. 2031-Oct-27 00:00:00.0000,  1.655174999303743E+08, -1.236142108783444E+08, -6.646524339902289E+06,  1.540183436451156E+01,  2.148830664655880E+01,  7.285615052326655E-02,
2463167.500000000, A.D. 2031-Oct-28 00:00:00.0000,  1.668389411790259E+08, -1.217507519889473E+08, -6.639858198050044E+06,  1.518677680789720E+01,  2.164693106140659E+01,  8.145213971912391E-02,
2463168.500000000, A.D. 2031-Oct-29 00:00:00.0000,  1.681417223886798E+08, -1.198736880368299E+08, -6.632449522694416E+06,  1.496989377619889E+01,  2.180323445218956E+01,  9.004422136807388E-02,
2463169.500000000, A.D. 2031-Oct-30 00:00:00.0000,  1.694256870780025E+08, -1.179832206414820E+08, -6.624298704529516E+06,  1.475121403821060E+01,  2.195719182002980E+01,  9.863116644525594E-02,
2463170.500000000, A.D. 2031-Oct-31 00:00:00.0000,  1.706906812697611E+08, -1.160795535638100E+08, -6.615406240502506E+06,  1.453076678911955E+01,  2.210877859549834E+01,  1.072117444789207E-01,
2463171.500000000, A.D. 2031-Nov-01 00:00:00.0000,  1.719365535273211E+08, -1.141628926686401E+08, -6.605772733921923E+06,  1.430858164254953E+01,  2.225797064767685E+01,  1.157847239356187E-01,
2463172.500000000, A.D. 2031-Nov-02 00:00:00.0000,  1.731631549904479E+08, -1.122334458864456E+08, -6.595398894532770E+06,  1.408468862237100E+01,  2.240474429303987E+01,  1.243488726073227E-01,
2463173.500000000, A.D. 2031-Nov-03 00:00:00.0000,  1.743703394103895E+08, -1.102914231743153E+08, -6.584285538557924E+06,  1.385911815428237E+01,  2.254907630415064E+01,  1.329029580001428E-01,
2463174.500000000, A.D. 2031-Nov-04 00:00:00.0000,  1.755579631842230E+08, -1.083370364761788E+08, -6.572433588706069E+06,  1.363190105716736E+01,  2.269094391816354E+01,  1.414457477244770E-01,
2463175.500000000, A.D. 2031-Nov-05 00:00:00.0000,  1.767258853884442E+08, -1.063704996823055E+08, -6.559844074145786E+06,  1.340306853423366E+01,  2.283032484512671E+01,  1.499760098861920E-01,
2463176.500000000, A.D. 2031-Nov-06 00:00:00.0000,  1.778739678117832E+08, -1.043920285880954E+08, -6.546518130445763E+06,  1.317265216393799E+01,  2.296719727607828E+01,  1.584925134786221E-01,
2463177.500000000, A.D. 2031-Nov-07 00:00:00.0000,  1.790020749872258E+08, -1.024018408521795E+08, -6.532456999481216E+06,  1.294068389070327E+01,  2.310153989093000E+01,  1.669940287750844E-01,
2463178.500000000, A.D. 2031-Nov-08 00:00:00.0000,  1.801100742232252E+08, -1.004001559538484E+08, -6.517662029306293E+06,  1.270719601543368E+01,  2.323333186613231E+01,  1.754793277215825E-01,
2463179.500000000, A.D. 2031-Nov-09 00:00:00.0000,  1.811978356340846E+08, -9.838719514982815E+07, -6.502134673992626E+06,  1.247222118583350E+01,  2.336255288211510E+01,  1.839471843295204E-01,
2463180.500000000, A.D. 2031-Nov-10 00:00:00.0000,  1.822652321694961E+08, -9.636318143042327E+07, -6.485876493433915E+06,  1.223579238653616E+01,  2.348918313049871E+01,  1.923963750680056E-01,
2463181.500000000, A.D. 2031-Nov-11 00:00:00.0000,  1.833121396432182E+08, -9.432833947504690E+07, -6.468889153116655E+06,  1.199794292904989E+01,  2.361320332106979E+01,  2.008256792555869E-01,
2463182.500000000, A.D. 2031-Nov-12 00:00:00.0000,  1.843384367608768E+08, -9.228289560715851E+07, -6.451174423857015E+06,  1.175870644152670E+01,  2.373459468851734E+01,  2.092338794510571E-01,
2463183.500000000, A.D. 2031-Nov-13 00:00:00.0000,  1.853440051468756E+08, -9.022707774863005E+07, -6.432734181504108E+06,  1.151811685836163E+01,  2.385333899892407E+01,  2.176197618431441E-01,
2463184.500000000, A.D. 2031-Nov-14 00:00:00.0000,  1.863287293703998E+08, -8.816111537356201E+07, -6.413570406609535E+06,  1.127620840962960E+01,  2.396941855600894E+01,  2.259821166387290E-01,
2463185.500000000, A.D. 2031-Nov-15 00:00:00.0000,  1.872924969705018E+08, -8.608523946157150E+07, -6.393685184063405E+06,  1.103301561038683E+01,  2.408281620710609E+01,  2.343197384524043E-01,
$$EOE
**************************************************************************************************************************************************************************************************
 
TIME

  Barycentric Dynamical Time ("TDB" or T_eph) output was requested. This
continuous coordinate time is equivalent to the relativistic proper time
of a clock at rest in a reference frame co-moving with the solar system
barycenter but outside the system's gravity well. It is the independent
variable in the solar system relativistic equations of motion.

  TDB runs at a uniform rate of one SI second per second and is independent
of irregularities in Earth's rotation.
 
CALENDAR SYSTEM

  Mixed calendar mode was active such that calendar dates after AD 1582-Oct-15
(if any) are in the modern Gregorian system. Dates prior to 1582-Oct-5 (if any)
are in the Julian calendar system, which is automatically extended for dates
prior to its adoption on 45-Jan-1 BC.  The Julian calendar is useful for
matching historical dates. The Gregorian calendar more accurately corresponds
to the Earth's orbital motion and seasons. A "Gregorian-only" calendar mode is
available if such physical events are the primary interest.

REFERENCE FRAME AND COORDINATES

  Ecliptic at the standard reference epoch

    Reference epoch: J2000.0
    X-Y plane: adopted Earth orbital plane at the reference epoch
               Note: IAU76 obliquity of 84381.448 arcseconds wrt ICRF X-Y plane
    X-axis   : ICRF
    Z-axis   : perpendicular to the X-Y plane in the directional (+ or -) sense
               of Earth's north pole at the reference epoch.

  Symbol meaning:

    JDTDB    Julian Day Number, Barycentric Dynamical Time
      X      X-component of position vector (km)
      Y      Y-component of position vector (km)
      Z      Z-component of position vector (km)
      VX     X-component of velocity vector (km/sec)                           
      VY     Y-component of velocity vector (km/sec)                           
      VZ     Z-component of velocity vector (km/sec)                           

ABERRATIONS AND CORRECTIONS

 Geometric state vectors have NO corrections or aberrations applied.

Computations by ...

    Solar System Dynamics Group, Horizons On-Line Ephemeris System
    4800 Oak Grove Drive, Jet Propulsion Laboratory
    Pasadena, CA  91109   USA

    General site: https://ssd.jpl.nasa.gov/
    Mailing list: https://ssd.jpl.nasa.gov/email_list.html
    System news : https://ssd.jpl.nasa.gov/horizons/news.html
    User Guide  : https://ssd.jpl.nasa.gov/horizons/manual.html
    Connect     : browser        https://ssd.jpl.nasa.gov/horizons/app.html#/x
                  API            https://ssd-api.jpl.nasa.gov/doc/horizons.html
                  command-line   telnet ssd.jpl.nasa.gov 6775
                  e-mail/batch   https://ssd.jpl.nasa.gov/ftp/ssd/hrzn_batch.txt
                  scripts        https://ssd.jpl.nasa.gov/ftp/ssd/SCRIPTS
    Author      : Jon.D.Giorgini@jpl.nasa.gov
*******************************************************************************
